STARLINK-36673          
1 67660U 26022N   26062.61344759  .00272811  00000+0  17705-2 0  9994
2 67660  97.2829  96.3084 0001706 101.7995 258.3461 15.75210806  4592
STARLINK-36674          
1 67661U 26022P   26062.61203438  .00292365  00000+0  18929-2 0  9998
2 67661  97.2824  96.3099 0001719 113.7152 246.4294 15.75212059  4590
STARLINK-36700          
1 67662U 26022Q   26062.60991695  .00254527  00000+0  16565-2 0  9999
2 67662  97.2829  96.3135 0001146  90.7664 269.3733 15.75196866  4592
STARLINK-36675          
1 67663U 26022R   26062.61133000  .00339213  00000+0  21832-2 0  9998
2 67663  97.2820  96.3110 0001670 101.4612 258.6841 15.75219270  4598
STARLINK-36404          
1 67664U 26022S   26062.60815200  .00269622  00000+0  17503-2 0  9993
2 67664  97.2830  96.3145 0001459 132.7913 227.3475 15.75212496  4593
STARLINK-36399          
1 67665U 26022T   26062.75002314 -.00065172  00000+0 -43878-3 0  9995
2 67665  97.2839  96.4676 0001437 103.8305 344.2488 15.75222301  5919
STARLINK-36365          
1 67666U 26022U   26062.60603527  .00271236  00000+0  17618-2 0  9993
2 67666  97.2838  96.3185 0001319  86.3679 273.7737 15.75194605  4592
STARLINK-36622          
1 67667U 26022V   26062.60427090  .00304475  00000+0  19688-2 0  9994
2 67667  97.2843  96.3210 0001423 102.8020 257.3405 15.75206769  4593
STARLINK-36625          
1 67668U 26022W   26062.60286417  .00467932  00000+0  29410-2 0  9993
2 67668  97.2833  96.3220 0001521  58.9947 301.1468 15.75412183  4598
STARLINK-36639          
1 67669U 26022X   26062.60109607  .00278738  00000+0  18084-2 0  9998
2 67669  97.2843  96.3250 0001769  76.2102 283.9360 15.75201797  4598
STARLINK-36596          
1 67670U 26022Y   26062.59933044  .00306317  00000+0  19792-2 0  9990
2 67670  97.2827  96.3265 0001647  73.6606 286.4840 15.75219890  4597
STARLINK-36297          
1 67671U 26022Z   26062.66074148  .00241470  00000+0  15731-2 0  9997
2 67671  97.2837  96.3970 0001566  70.7810 289.3625 15.75209651  4606
