CCSDS_OMM_VERS = 2.0
CREATION_DATE  = 
ORIGINATOR     = 

OBJECT_NAME    = STARLINK-36673
OBJECT_ID      = 2026-022N
CENTER_NAME    = EARTH
REF_FRAME      = TEME
TIME_SYSTEM    = UTC
MEAN_ELEMENT_THEORY = SGP/SGP4

EPOCH          = 2026-03-03T14:43:21.871776
MEAN_MOTION    = 15.75210806
ECCENTRICITY   = .0001706
INCLINATION    = 97.2829
RA_OF_ASC_NODE = 96.3084
ARG_OF_PERICENTER = 101.7995
MEAN_ANOMALY   = 258.3461

EPHEMERIS_TYPE = 0
CLASSIFICATION_TYPE = U
NORAD_CAT_ID   = 67660
ELEMENT_SET_NO = 999
REV_AT_EPOCH   = 459
BSTAR          = .17705E-2
MEAN_MOTION_DOT = .272811E-2
MEAN_MOTION_DDOT = 0

CCSDS_OMM_VERS = 2.0
CREATION_DATE  = 
ORIGINATOR     = 

OBJECT_NAME    = STARLINK-36674
OBJECT_ID      = 2026-022P
CENTER_NAME    = EARTH
REF_FRAME      = TEME
TIME_SYSTEM    = UTC
MEAN_ELEMENT_THEORY = SGP/SGP4

EPOCH          = 2026-03-03T14:41:19.770432
MEAN_MOTION    = 15.75212059
ECCENTRICITY   = .0001719
INCLINATION    = 97.2824
RA_OF_ASC_NODE = 96.3099
ARG_OF_PERICENTER = 113.7152
MEAN_ANOMALY   = 246.4294

EPHEMERIS_TYPE = 0
CLASSIFICATION_TYPE = U
NORAD_CAT_ID   = 67661
ELEMENT_SET_NO = 999
REV_AT_EPOCH   = 459
BSTAR          = .18929E-2
MEAN_MOTION_DOT = .292365E-2
MEAN_MOTION_DDOT = 0

CCSDS_OMM_VERS = 2.0
CREATION_DATE  = 
ORIGINATOR     = 

OBJECT_NAME    = STARLINK-36700
OBJECT_ID      = 2026-022Q
CENTER_NAME    = EARTH
REF_FRAME      = TEME
TIME_SYSTEM    = UTC
MEAN_ELEMENT_THEORY = SGP/SGP4

EPOCH          = 2026-03-03T14:38:16.824480
MEAN_MOTION    = 15.75196866
ECCENTRICITY   = .0001146
INCLINATION    = 97.2829
RA_OF_ASC_NODE = 96.3135
ARG_OF_PERICENTER = 90.7664
MEAN_ANOMALY   = 269.3733

EPHEMERIS_TYPE = 0
CLASSIFICATION_TYPE = U
NORAD_CAT_ID   = 67662
ELEMENT_SET_NO = 999
REV_AT_EPOCH   = 459
BSTAR          = .16565E-2
MEAN_MOTION_DOT = .254527E-2
MEAN_MOTION_DDOT = 0

CCSDS_OMM_VERS = 2.0
CREATION_DATE  = 
ORIGINATOR     = 

OBJECT_NAME    = STARLINK-36675
OBJECT_ID      = 2026-022R
CENTER_NAME    = EARTH
REF_FRAME      = TEME
TIME_SYSTEM    = UTC
MEAN_ELEMENT_THEORY = SGP/SGP4

EPOCH          = 2026-03-03T14:40:18.912000
MEAN_MOTION    = 15.75219270
ECCENTRICITY   = .000167
INCLINATION    = 97.2820
RA_OF_ASC_NODE = 96.3110
ARG_OF_PERICENTER = 101.4612
MEAN_ANOMALY   = 258.6841

EPHEMERIS_TYPE = 0
CLASSIFICATION_TYPE = U
NORAD_CAT_ID   = 67663
ELEMENT_SET_NO = 999
REV_AT_EPOCH   = 459
BSTAR          = .21832E-2
MEAN_MOTION_DOT = .339213E-2
MEAN_MOTION_DDOT = 0

CCSDS_OMM_VERS = 2.0
CREATION_DATE  = 
ORIGINATOR     = 

OBJECT_NAME    = STARLINK-36404
OBJECT_ID      = 2026-022S
CENTER_NAME    = EARTH
REF_FRAME      = TEME
TIME_SYSTEM    = UTC
MEAN_ELEMENT_THEORY = SGP/SGP4

EPOCH          = 2026-03-03T14:35:44.332800
MEAN_MOTION    = 15.75212496
ECCENTRICITY   = .0001459
INCLINATION    = 97.2830
RA_OF_ASC_NODE = 96.3145
ARG_OF_PERICENTER = 132.7913
MEAN_ANOMALY   = 227.3475

EPHEMERIS_TYPE = 0
CLASSIFICATION_TYPE = U
NORAD_CAT_ID   = 67664
ELEMENT_SET_NO = 999
REV_AT_EPOCH   = 459
BSTAR          = .17503E-2
MEAN_MOTION_DOT = .269622E-2
MEAN_MOTION_DDOT = 0

CCSDS_OMM_VERS = 2.0
CREATION_DATE  = 
ORIGINATOR     = 

OBJECT_NAME    = STARLINK-36399
OBJECT_ID      = 2026-022T
CENTER_NAME    = EARTH
REF_FRAME      = TEME
TIME_SYSTEM    = UTC
MEAN_ELEMENT_THEORY = SGP/SGP4

EPOCH          = 2026-03-03T18:00:01.999296
MEAN_MOTION    = 15.75222301
ECCENTRICITY   = .0001437
INCLINATION    = 97.2839
RA_OF_ASC_NODE = 96.4676
ARG_OF_PERICENTER = 103.8305
MEAN_ANOMALY   = 344.2488

EPHEMERIS_TYPE = 0
CLASSIFICATION_TYPE = U
NORAD_CAT_ID   = 67665
ELEMENT_SET_NO = 999
REV_AT_EPOCH   = 591
BSTAR          = -.43878E-3
MEAN_MOTION_DOT = -.65172E-3
MEAN_MOTION_DDOT = 0

CCSDS_OMM_VERS = 2.0
CREATION_DATE  = 
ORIGINATOR     = 

OBJECT_NAME    = STARLINK-36365
OBJECT_ID      = 2026-022U
CENTER_NAME    = EARTH
REF_FRAME      = TEME
TIME_SYSTEM    = UTC
MEAN_ELEMENT_THEORY = SGP/SGP4

EPOCH          = 2026-03-03T14:32:41.447328
MEAN_MOTION    = 15.75194605
ECCENTRICITY   = .0001319
INCLINATION    = 97.2838
RA_OF_ASC_NODE = 96.3185
ARG_OF_PERICENTER = 86.3679
MEAN_ANOMALY   = 273.7737

EPHEMERIS_TYPE = 0
CLASSIFICATION_TYPE = U
NORAD_CAT_ID   = 67666
ELEMENT_SET_NO = 999
REV_AT_EPOCH   = 459
BSTAR          = .17618E-2
MEAN_MOTION_DOT = .271236E-2
MEAN_MOTION_DDOT = 0

CCSDS_OMM_VERS = 2.0
CREATION_DATE  = 
ORIGINATOR     = 

OBJECT_NAME    = STARLINK-36622
OBJECT_ID      = 2026-022V
CENTER_NAME    = EARTH
REF_FRAME      = TEME
TIME_SYSTEM    = UTC
MEAN_ELEMENT_THEORY = SGP/SGP4

EPOCH          = 2026-03-03T14:30:09.005760
MEAN_MOTION    = 15.75206769
ECCENTRICITY   = .0001423
INCLINATION    = 97.2843
RA_OF_ASC_NODE = 96.3210
ARG_OF_PERICENTER = 102.8020
MEAN_ANOMALY   = 257.3405

EPHEMERIS_TYPE = 0
CLASSIFICATION_TYPE = U
NORAD_CAT_ID   = 67667
ELEMENT_SET_NO = 999
REV_AT_EPOCH   = 459
BSTAR          = .19688E-2
MEAN_MOTION_DOT = .304475E-2
MEAN_MOTION_DDOT = 0

CCSDS_OMM_VERS = 2.0
CREATION_DATE  = 
ORIGINATOR     = 

OBJECT_NAME    = STARLINK-36625
OBJECT_ID      = 2026-022W
CENTER_NAME    = EARTH
REF_FRAME      = TEME
TIME_SYSTEM    = UTC
MEAN_ELEMENT_THEORY = SGP/SGP4

EPOCH          = 2026-03-03T14:28:07.464288
MEAN_MOTION    = 15.75412183
ECCENTRICITY   = .0001521
INCLINATION    = 97.2833
RA_OF_ASC_NODE = 96.3220
ARG_OF_PERICENTER = 58.9947
MEAN_ANOMALY   = 301.1468

EPHEMERIS_TYPE = 0
CLASSIFICATION_TYPE = U
NORAD_CAT_ID   = 67668
ELEMENT_SET_NO = 999
REV_AT_EPOCH   = 459
BSTAR          = .2941E-2
MEAN_MOTION_DOT = .467932E-2
MEAN_MOTION_DDOT = 0

CCSDS_OMM_VERS = 2.0
CREATION_DATE  = 
ORIGINATOR     = 

OBJECT_NAME    = STARLINK-36639
OBJECT_ID      = 2026-022X
CENTER_NAME    = EARTH
REF_FRAME      = TEME
TIME_SYSTEM    = UTC
MEAN_ELEMENT_THEORY = SGP/SGP4

EPOCH          = 2026-03-03T14:25:34.700448
MEAN_MOTION    = 15.75201797
ECCENTRICITY   = .0001769
INCLINATION    = 97.2843
RA_OF_ASC_NODE = 96.3250
ARG_OF_PERICENTER = 76.2102
MEAN_ANOMALY   = 283.9360

EPHEMERIS_TYPE = 0
CLASSIFICATION_TYPE = U
NORAD_CAT_ID   = 67669
ELEMENT_SET_NO = 999
REV_AT_EPOCH   = 459
BSTAR          = .18084E-2
MEAN_MOTION_DOT = .278738E-2
MEAN_MOTION_DDOT = 0

CCSDS_OMM_VERS = 2.0
CREATION_DATE  = 
ORIGINATOR     = 

OBJECT_NAME    = STARLINK-36596
OBJECT_ID      = 2026-022Y
CENTER_NAME    = EARTH
REF_FRAME      = TEME
TIME_SYSTEM    = UTC
MEAN_ELEMENT_THEORY = SGP/SGP4

EPOCH          = 2026-03-03T14:23:02.150016
MEAN_MOTION    = 15.75219890
ECCENTRICITY   = .0001647
INCLINATION    = 97.2827
RA_OF_ASC_NODE = 96.3265
ARG_OF_PERICENTER = 73.6606
MEAN_ANOMALY   = 286.4840

EPHEMERIS_TYPE = 0
CLASSIFICATION_TYPE = U
NORAD_CAT_ID   = 67670
ELEMENT_SET_NO = 999
REV_AT_EPOCH   = 459
BSTAR          = .19792E-2
MEAN_MOTION_DOT = .306317E-2
MEAN_MOTION_DDOT = 0

CCSDS_OMM_VERS = 2.0
CREATION_DATE  = 
ORIGINATOR     = 

OBJECT_NAME    = STARLINK-36297
OBJECT_ID      = 2026-022Z
CENTER_NAME    = EARTH
REF_FRAME      = TEME
TIME_SYSTEM    = UTC
MEAN_ELEMENT_THEORY = SGP/SGP4

EPOCH          = 2026-03-03T15:51:28.063872
MEAN_MOTION    = 15.75209651
ECCENTRICITY   = .0001566
INCLINATION    = 97.2837
RA_OF_ASC_NODE = 96.3970
ARG_OF_PERICENTER = 70.7810
MEAN_ANOMALY   = 289.3625

EPHEMERIS_TYPE = 0
CLASSIFICATION_TYPE = U
NORAD_CAT_ID   = 67671
ELEMENT_SET_NO = 999
REV_AT_EPOCH   = 460
BSTAR          = .15731E-2
MEAN_MOTION_DOT = .24147E-2
MEAN_MOTION_DDOT = 0

